start=new Date('2022-10-02T00:00:00.000Z').valueOf();
sats=[{"RCS_SIZE":"LARGE","EPHEMERIS_TYPE":"0","SITE":"AFETR","ECCENTRICITY":"0.00015250","TLE_LINE1":"1 48122U 21027AG  22274.82229841  .00003412  00000-0  24781-3 0  9997","TIME_SYSTEM":"UTC","MEAN_MOTION_DOT":"0.00003412","INCLINATION":"53.0560","DECAY_DATE":null,"PERIOD":"95.592","ARG_OF_PERICENTER":"62.8281","REV_AT_EPOCH":"8349","ELEMENT_SET_NO":"999","REF_FRAME":"TEME","LAUNCH_DATE":"2021-04-07","CLASSIFICATION_TYPE":"U","MEAN_ELEMENT_THEORY":"SGP4","OBJECT_TYPE":"PAYLOAD","COUNTRY_CODE":"US","MEAN_MOTION_DDOT":"0.0000000000000","GP_ID":"213977473","MEAN_MOTION":"15.06403285","BSTAR":"0.00024781000000","TLE_LINE2":"2 48122  53.0560  29.9064 0001525  62.8281 297.2863 15.06403285 83493","OBJECT_ID":"2021-027AG","SEMIMAJOR_AXIS":"6925.338","RA_OF_ASC_NODE":"29.9064","APOAPSIS":"548.260","NORAD_CAT_ID":"48122","MEAN_ANOMALY":"297.2863","PERIAPSIS":"546.147","FILE":"3588844","CENTER_NAME":"EARTH","OBJECT_NAME":"STARLINK-2463","EPOCH":"2022-10-01T19:44:06.582624"},{"MEAN_MOTION_DDOT":"0.0000000000000","COUNTRY_CODE":"US","MEAN_MOTION":"15.06413388","GP_ID":"213977224","APOAPSIS":"548.297","RA_OF_ASC_NODE":"25.4989","SEMIMAJOR_AXIS":"6925.308","OBJECT_ID":"2021-027AH","BSTAR":"0.00054433000000","TLE_LINE2":"2 48123  53.0551  25.4989 0001624  67.5064 292.6097 15.06413388 83541","EPOCH":"2022-10-01T16:46:58.706976","CENTER_NAME":"EARTH","OBJECT_NAME":"STARLINK-2464","FILE":"3588844","PERIAPSIS":"546.048","MEAN_ANOMALY":"292.6097","NORAD_CAT_ID":"48123","ECCENTRICITY":"0.00016240","EPHEMERIS_TYPE":"0","SITE":"AFETR","RCS_SIZE":"LARGE","INCLINATION":"53.0551","MEAN_MOTION_DOT":"0.00007838","TIME_SYSTEM":"UTC","TLE_LINE1":"1 48123U 21027AH  22274.69929059  .00007838  00000-0  54433-3 0  9994","REF_FRAME":"TEME","ELEMENT_SET_NO":"999","REV_AT_EPOCH":"8354","ARG_OF_PERICENTER":"67.5064","PERIOD":"95.591","DECAY_DATE":null,"OBJECT_TYPE":"PAYLOAD","MEAN_ELEMENT_THEORY":"SGP4","CLASSIFICATION_TYPE":"U","LAUNCH_DATE":"2021-04-07"},{"MEAN_MOTION":"15.06420382","GP_ID":"213975972","MEAN_MOTION_DDOT":"0.0000000000000","COUNTRY_CODE":"US","CENTER_NAME":"EARTH","OBJECT_NAME":"STARLINK-2465","EPOCH":"2022-10-01T19:56:44.044512","PERIAPSIS":"546.071","FILE":"3588844","MEAN_ANOMALY":"295.1314","NORAD_CAT_ID":"48124","RA_OF_ASC_NODE":"34.9031","APOAPSIS":"548.231","OBJECT_ID":"2021-027AJ","SEMIMAJOR_AXIS":"6925.286","BSTAR":"0.00066986000000","TLE_LINE2":"2 48124  53.0542  34.9031 0001560  64.9836 295.1314 15.06420382 83410","INCLINATION":"53.0542","MEAN_MOTION_DOT":"0.00009715","TIME_SYSTEM":"UTC","TLE_LINE1":"1 48124U 21027AJ  22274.83106533  .00009715  00000-0  66986-3 0  9997","ECCENTRICITY":"0.00015600","SITE":"AFETR","EPHEMERIS_TYPE":"0","RCS_SIZE":"LARGE","OBJECT_TYPE":"PAYLOAD","MEAN_ELEMENT_THEORY":"SGP4","CLASSIFICATION_TYPE":"U","LAUNCH_DATE":"2021-04-07","REF_FRAME":"TEME","REV_AT_EPOCH":"8341","ELEMENT_SET_NO":"999","DECAY_DATE":null,"ARG_OF_PERICENTER":"64.9836","PERIOD":"95.591"},{"EPHEMERIS_TYPE":"0","SITE":"AFETR","ECCENTRICITY":"0.00013080","RCS_SIZE":"LARGE","MEAN_MOTION_DOT":"0.00000130","INCLINATION":"53.0553","TLE_LINE1":"1 48125U 21027AK  22274.77855631  .00000130  00000-0  27599-4 0  9991","TIME_SYSTEM":"UTC","REF_FRAME":"TEME","DECAY_DATE":null,"PERIOD":"95.592","ARG_OF_PERICENTER":"67.9164","REV_AT_EPOCH":"8287","ELEMENT_SET_NO":"999","MEAN_ELEMENT_THEORY":"SGP4","OBJECT_TYPE":"PAYLOAD","LAUNCH_DATE":"2021-04-07","CLASSIFICATION_TYPE":"U","MEAN_MOTION_DDOT":"0.0000000000000","COUNTRY_CODE":"US","MEAN_MOTION":"15.06405031","GP_ID":"213952885","RA_OF_ASC_NODE":"45.3808","APOAPSIS":"548.104","BSTAR":"0.00002759900000","TLE_LINE2":"2 48125  53.0553  45.3808 0001308  67.9164 292.1963 15.06405031 82878","OBJECT_ID":"2021-027AK","SEMIMAJOR_AXIS":"6925.333","PERIAPSIS":"546.292","FILE":"3588720","CENTER_NAME":"EARTH","OBJECT_NAME":"STARLINK-2466","EPOCH":"2022-10-01T18:41:07.265184","MEAN_ANOMALY":"292.1963","NORAD_CAT_ID":"48125"},{"ELEMENT_SET_NO":"999","REV_AT_EPOCH":"8356","PERIOD":"95.591","ARG_OF_PERICENTER":"67.0629","DECAY_DATE":null,"REF_FRAME":"TEME","CLASSIFICATION_TYPE":"U","LAUNCH_DATE":"2021-04-07","OBJECT_TYPE":"PAYLOAD","MEAN_ELEMENT_THEORY":"SGP4","RCS_SIZE":"LARGE","ECCENTRICITY":"0.00015390","EPHEMERIS_TYPE":"0","SITE":"AFETR","TIME_SYSTEM":"UTC","TLE_LINE1":"1 48126U 21027AL  22274.79880084  .00003531  00000-0  25574-3 0  9992","MEAN_MOTION_DOT":"0.00003531","INCLINATION":"53.0564","OBJECT_ID":"2021-027AL","SEMIMAJOR_AXIS":"6925.306","TLE_LINE2":"2 48126  53.0564  25.0465 0001539  67.0629 293.0523 15.06413969 83566","BSTAR":"0.00025574000000","APOAPSIS":"548.237","RA_OF_ASC_NODE":"25.0465","MEAN_ANOMALY":"293.0523","NORAD_CAT_ID":"48126","EPOCH":"2022-10-01T19:10:16.392576","OBJECT_NAME":"STARLINK-2467","CENTER_NAME":"EARTH","FILE":"3588844","PERIAPSIS":"546.105","COUNTRY_CODE":"US","MEAN_MOTION_DDOT":"0.0000000000000","GP_ID":"213976974","MEAN_MOTION":"15.06413969"},{"ARG_OF_PERICENTER":"72.3026","PERIOD":"95.591","DECAY_DATE":null,"ELEMENT_SET_NO":"999","REV_AT_EPOCH":"8327","REF_FRAME":"TEME","LAUNCH_DATE":"2021-04-07","CLASSIFICATION_TYPE":"U","MEAN_ELEMENT_THEORY":"SGP4","OBJECT_TYPE":"PAYLOAD","RCS_SIZE":"LARGE","SITE":"AFETR","EPHEMERIS_TYPE":"0","ECCENTRICITY":"0.00012530","TLE_LINE1":"1 48127U 21027AM  22274.78959861  .00005760  00000-0  40513-3 0  9998","TIME_SYSTEM":"UTC","INCLINATION":"53.0545","MEAN_MOTION_DOT":"0.00005760","BSTAR":"0.00040513000000","TLE_LINE2":"2 48127  53.0545  45.0987 0001253  72.3026 287.8100 15.06414268 83273","SEMIMAJOR_AXIS":"6925.305","OBJECT_ID":"2021-027AM","APOAPSIS":"548.038","RA_OF_ASC_NODE":"45.0987","MEAN_ANOMALY":"287.8100","NORAD_CAT_ID":"48127","FILE":"3588844","PERIAPSIS":"546.302","EPOCH":"2022-10-01T18:57:01.319904","OBJECT_NAME":"STARLINK-2468","CENTER_NAME":"EARTH","COUNTRY_CODE":"US","MEAN_MOTION_DDOT":"0.0000000000000","GP_ID":"213977724","MEAN_MOTION":"15.06414268"},{"EPHEMERIS_TYPE":"0","SITE":"AFETR","ECCENTRICITY":"0.00016360","RCS_SIZE":"LARGE","INCLINATION":"53.0563","MEAN_MOTION_DOT":"-0.00000837","TLE_LINE1":"1 48128U 21027AN  22274.43850864 -.00000837  00000-0 -37275-4 0  9998","TIME_SYSTEM":"UTC","REF_FRAME":"TEME","DECAY_DATE":null,"ARG_OF_PERICENTER":"66.8733","PERIOD":"95.591","REV_AT_EPOCH":"8419","ELEMENT_SET_NO":"999","MEAN_ELEMENT_THEORY":"SGP4","OBJECT_TYPE":"PAYLOAD","LAUNCH_DATE":"2021-04-07","CLASSIFICATION_TYPE":"U","MEAN_MOTION_DDOT":"0.0000000000000","COUNTRY_CODE":"US","MEAN_MOTION":"15.06416623","GP_ID":"213946294","RA_OF_ASC_NODE":"336.7595","APOAPSIS":"548.296","BSTAR":"-0.00003727500000","TLE_LINE2":"2 48128  53.0563 336.7595 0001636  66.8733 293.2428 15.06416623 84190","OBJECT_ID":"2021-027AN","SEMIMAJOR_AXIS":"6925.298","PERIAPSIS":"546.030","FILE":"3588593","CENTER_NAME":"EARTH","OBJECT_NAME":"STARLINK-2469","EPOCH":"2022-10-01T10:31:27.146496","MEAN_ANOMALY":"293.2428","NORAD_CAT_ID":"48128"},{"GP_ID":"213976223","MEAN_MOTION":"15.06408782","COUNTRY_CODE":"US","MEAN_MOTION_DDOT":"0.0000000000000","NORAD_CAT_ID":"48129","MEAN_ANOMALY":"291.8383","FILE":"3588844","PERIAPSIS":"546.186","EPOCH":"2022-10-01T18:46:23.087424","CENTER_NAME":"EARTH","OBJECT_NAME":"STARLINK-2471","TLE_LINE2":"2 48129  53.0557  45.1281 0001445  68.2760 291.8383 15.06408782 83270","BSTAR":"0.00006764500000","SEMIMAJOR_AXIS":"6925.322","OBJECT_ID":"2021-027AP","APOAPSIS":"548.187","RA_OF_ASC_NODE":"45.1281","TLE_LINE1":"1 48129U 21027AP  22274.78221166  .00000726  00000-0  67645-4 0  9993","TIME_SYSTEM":"UTC","MEAN_MOTION_DOT":"0.00000726","INCLINATION":"53.0557","RCS_SIZE":"LARGE","EPHEMERIS_TYPE":"0","SITE":"AFETR","ECCENTRICITY":"0.00014450","LAUNCH_DATE":"2021-04-07","CLASSIFICATION_TYPE":"U","MEAN_ELEMENT_THEORY":"SGP4","OBJECT_TYPE":"PAYLOAD","PERIOD":"95.592","ARG_OF_PERICENTER":"68.2760","DECAY_DATE":null,"ELEMENT_SET_NO":"999","REV_AT_EPOCH":"8327","REF_FRAME":"TEME"},{"NORAD_CAT_ID":"48130","MEAN_ANOMALY":"290.7467","OBJECT_NAME":"STARLINK-2472","CENTER_NAME":"EARTH","EPOCH":"2022-10-01T18:31:05.721600","PERIAPSIS":"546.324","FILE":"3588844","SEMIMAJOR_AXIS":"6925.319","OBJECT_ID":"2021-027AQ","BSTAR":"0.00013608000000","TLE_LINE2":"2 48130  53.0558  50.1767 0001242  69.3655 290.7467 15.06409743 83200","RA_OF_ASC_NODE":"50.1767","APOAPSIS":"548.044","GP_ID":"213977474","MEAN_MOTION":"15.06409743","COUNTRY_CODE":"US","MEAN_MOTION_DDOT":"0.0000000000000","CLASSIFICATION_TYPE":"U","LAUNCH_DATE":"2021-04-07","OBJECT_TYPE":"PAYLOAD","MEAN_ELEMENT_THEORY":"SGP4","REV_AT_EPOCH":"8320","ELEMENT_SET_NO":"999","DECAY_DATE":null,"PERIOD":"95.592","ARG_OF_PERICENTER":"69.3655","REF_FRAME":"TEME","TIME_SYSTEM":"UTC","TLE_LINE1":"1 48130U 21027AQ  22274.77159400  .00001747  00000-0  13608-3 0  9998","INCLINATION":"53.0558","MEAN_MOTION_DOT":"0.00001747","RCS_SIZE":"LARGE","ECCENTRICITY":"0.00012420","SITE":"AFETR","EPHEMERIS_TYPE":"0"},{"OBJECT_ID":"2021-027AR","SEMIMAJOR_AXIS":"6925.363","TLE_LINE2":"2 48131  53.0562  25.0672 0001498  63.3450 296.7692 15.06395227 83557","BSTAR":"0.00034700000000","APOAPSIS":"548.266","RA_OF_ASC_NODE":"25.0672","MEAN_ANOMALY":"296.7692","NORAD_CAT_ID":"48131","EPOCH":"2022-10-01T18:59:40.062624","CENTER_NAME":"EARTH","OBJECT_NAME":"STARLINK-2473","FILE":"3588844","PERIAPSIS":"546.191","COUNTRY_CODE":"US","MEAN_MOTION_DDOT":"0.0000000000000","GP_ID":"213977225","MEAN_MOTION":"15.06395227","ELEMENT_SET_NO":"999","REV_AT_EPOCH":"8355","PERIOD":"95.592","ARG_OF_PERICENTER":"63.3450","DECAY_DATE":null,"REF_FRAME":"TEME","CLASSIFICATION_TYPE":"U","LAUNCH_DATE":"2021-04-07","OBJECT_TYPE":"PAYLOAD","MEAN_ELEMENT_THEORY":"SGP4","RCS_SIZE":"LARGE","ECCENTRICITY":"0.00014980","SITE":"AFETR","EPHEMERIS_TYPE":"0","TIME_SYSTEM":"UTC","TLE_LINE1":"1 48131U 21027AR  22274.79143591  .00004890  00000-0  34700-3 0  9993","MEAN_MOTION_DOT":"0.00004890","INCLINATION":"53.0562"}];
